JB-3 3 (ZY 2C)          
1 28470U 04044A   20018.76415093  .00000211  00000-0  19772-4 0  9993
2 28470  97.3571 272.0100 0045718   9.2791 350.9269 15.02809169834932
AMC-16                  
1 28472U 04048A   20018.57613243 -.00000210  00000-0  00000+0 0  9994
2 28472   0.0211 331.2363 0002595 338.7886 289.8156  1.00271508 55333
NAVSTAR 56 (USA 180)    
1 28474U 04045A   20018.67758797 -.00000068  00000-0  00000+0 0  9999
2 28474  54.8686  59.0002 0199342 264.2024  95.8543  2.00570149111463
SWIFT                   
1 28485U 04047A   20018.32355239  .00000735  00000-0  19686-4 0  9994
2 28485  20.5581   2.7935 0010884 306.2698  53.6730 15.04521451830688
NANOSAT-1               
1 28493U 04049B   20018.46351750  .00000019  00000-0  10727-4 0  9996
2 28493  98.1259 108.0664 0003742 213.1368 146.9606 14.73548252810111
COSMOS 2414             
1 28521U 05002A   20018.75931189 -.00000002  00000-0 -15074-4 0  9994
2 28521  82.9491  14.0153 0040412 162.0404 198.2202 13.87617704759419
NSS-10 (AMC-12)         
1 28526U 05003A   20018.51349693 -.00000255  00000-0  00000-0 0  9995
2 28526   0.6685  95.9034 0002681 216.0484 312.8138  1.00270369 29670
XTAR-EUR                
1 28542U 05005A   20018.59307122  .00000147  00000-0  00000+0 0  9992
2 28542   0.0342  92.6785 0002382 218.2279  49.0512  1.00269465 54705
XM-3 (RHYTHM)           
1 28626U 05008A   20018.36074657 -.00000209  00000-0  00000-0 0  9998
2 28626   0.0408 221.6032 0000548 167.7558 132.6119  1.00269960 54588
INMARSAT 4-F1           
1 28628U 05009A   20018.75674336 -.00000267  00000-0  00000+0 0  9997
2 28628   3.1214  25.7935 0002714 287.3740 220.3630  1.00271826 54186
APSTAR 6                
1 28638U 05012A   20018.55380000 -.00000090  00000-0  00000-0 0  9997
2 28638   1.3081  93.6424 0006388 226.8976 159.2050  1.00271079 78908
SPACEWAY 1              
1 28644U 05015A   20018.70890573  .00000099  00000-0  00000+0 0  9992
2 28644   0.7581  94.9315 0000869 231.4508 267.4807  1.00272454 54035
IRS-P5 (CARTOSAT-1)     
1 28649U 05017A   20018.77548059  .00000023  00000-0  90546-5 0  9992
2 28649  97.8323  90.7393 0001329 153.0136 207.1148 14.83675398796175
NOAA 18                 
1 28654U 05018A   20018.56636080  .00000058  00000-0  56463-4 0  9995
2 28654  99.0676  73.4249 0013386 297.4255  62.5555 14.12482278755619
DIRECTV 8               
1 28659U 05019A   20018.56229875 -.00000120  00000-0  00000-0 0  9994
2 28659   0.0189  57.7078 0002546 250.2152 271.1609  1.00269167 53666
GALAXY 28 (G-28)        
1 28702U 05022A   20018.57526007 -.00000189  00000-0  00000-0 0  9990
2 28702   0.0444  85.0697 0002388 269.4990 240.9868  1.00269443 28633
EXPRESS-AM3             
1 28707U 05023A   20018.29052720 -.00000327  00000-0  00000-0 0  9995
2 28707   1.4795  91.7619 0000792 174.8860  58.0769  1.00268617 53359
SJ-7                    
1 28737U 05024A   20018.55370001  .00000536  00000-0  52502-4 0  9992
2 28737  97.6790  20.2870 0034640  33.9103 326.4323 14.95946882796261
THAICOM 4               
1 28786U 05028A   20018.76046225 -.00000367  00000-0  00000+0 0  9995
2 28786   0.0178  55.8840 0002307 244.0240 210.9491  1.00272436 52847
GALAXY 14 (G-14)        
1 28790U 05030A   20018.54910453  .00000033  00000-0  00000-0 0  9992
2 28790   0.0182 351.0618 0002106 314.8434 244.1708  1.00272378 52833
REIMEI (INDEX)          
1 28810U 05031B   20018.67666824  .00000191  00000-0  25832-4 0  9999
2 28810  98.1673  45.8250 0027268 329.0823  30.8787 14.90465284780899
ANIK F1R                
1 28868U 05036A   20018.53243751 -.00000078  00000-0  00000-0 0  9993
2 28868   0.0157 349.4092 0002022 354.1163 218.2282  1.00269633 22983
NAVSTAR 57 (USA 183)    
1 28874U 05038A   20014.04722694 -.00000057  00000-0  00000-0 0  9999
2 28874  56.3947   6.2300 0136708 264.6851  95.8074  2.00568726104782
GALAXY 15 (G-15)        
1 28884U 05041A   20018.71012705  .00000074  00000-0  00000+0 0  9994
2 28884   0.0240 284.3854 0001725  12.4076 303.4042  1.00271408 52148
SYRACUSE 3A             
1 28885U 05041B   20018.74997301  .00000124  00000-0  00000+0 0  9998
2 28885   0.0490  98.6447 0002860 196.2941 139.6404  1.00272672 52250
BEIJING 1               
1 28890U 05043A   20018.86295586  .00000042  00000-0  17768-4 0  9998
2 28890  98.0072 152.2553 0016485  59.4861 300.7966 14.61278269758529
SINAH 1                 
1 28893U 05043D   20018.58328546  .00000003  00000-0  98499-5 0  9991
2 28893  98.0003 153.6801 0016356  59.9623 300.3199 14.61520834758280
CUBESAT XI-V            
1 28895U 05043F   20018.34183981  .00000079  00000-0  23991-4 0  9996
2 28895  97.9858 159.1506 0017532  41.2974 318.9551 14.63730153758502
INMARSAT 4-F2           
1 28899U 05044A   20018.53399741  .00000005  00000-0  00000-0 0  9996
2 28899   2.9614  28.7317 0002815 280.1864  64.5810  1.00270656 52034
TELKOM 2                
1 28902U 05046A   20018.76796455 -.00000143  00000-0  00000+0 0  9994
2 28902   0.0148  89.4225 0000494  25.5751  76.1005  1.00271484 51763
SPACEWAY 2              
1 28903U 05046B   20018.71646546 -.00000130  00000-0  00000+0 0  9991
2 28903   0.0290 191.1303 0000306 214.1738 231.1008  1.00268374 52012
COSMOS 2416             
1 28908U 05048A   20018.54399125  .00000007  00000-0 -17306-4 0  9992
2 28908  82.4684   4.9186 0007661   6.9860 101.2802 12.55498073645045
METEOSAT-9 (MSG-2)      
1 28912U 05049B   20018.40951943  .00000011  00000-0  00000-0 0  9998
2 28912   4.1074  70.7044 0000898 358.8273 198.5222  1.00275136 51553
EUTELSAT 174A           
1 28924U 05052A   20018.55535417  .00000005  00000-0  00000-0 0  9998
2 28924   0.0647  27.2909 0005886 273.2955 190.7352  1.00271836 28862
ECHOSTAR 10             
1 28935U 06003A   20018.54354748 -.00000059  00000-0  00000-0 0  9992
2 28935   0.0261 322.4391 0001747 316.6118 283.8134  1.00271455 51007
HIMAWARI-7 (MTSAT-2)    
1 28937U 06004A   20018.80661887 -.00000247  00000-0  00000+0 0  9997
2 28937   0.0858 280.8366 0002936   7.4952 264.7522  1.00269250 50875
SPAINSAT                
1 28945U 06007A   20017.75916947 -.00000220  00000-0  00000-0 0  9994
2 28945   0.0451 231.7360 0005197  46.8975  81.2869  1.00271223 50730
EUTELSAT HOT BIRD 13E   
1 28946U 06007B   20018.52379080  .00000082  00000-0  00000-0 0  9997
2 28946   0.0407 160.3074 0004537 122.4047  36.2010  1.00270634 50822
JCSAT-5A                
1 29045U 06010A   20018.54760623 -.00000333  00000-0  00000-0 0  9991
2 29045   0.0199  77.5493 0001041 261.4480 107.6110  1.00269442 50275
FORMOSAT-3 FM6          
1 29047U 06011A   20018.52173271  .00000022  00000-0  24908-4 0  9990
2 29047  71.9785  58.0440 0052011 319.9098  39.8205 14.28708066719770
FORMOSAT-3 FM1          
1 29048U 06011B   20018.32692596 -.00000055  00000-0 -50736-5 0  9992
2 29048  71.9659 329.5298 0046017 279.3292  80.2642 14.28674937722220
FORMOSAT-3 FM5          
1 29049U 06011C   20018.61648295 -.00000049  00000-0 -28513-5 0  9993
2 29049  72.0193 139.7290 0036619 305.9307  53.8433 14.28757466718058
FORMOSAT-3 FM3          
1 29050U 06011D   20018.77032235  .00000055  00000-0  22094-4 0  9995
2 29050  72.0166 300.9042 0051936 239.7562 119.8444 14.58869857734451
FORMOSAT-3 FM4          
1 29051U 06011E   20018.54973528  .00000035  00000-0  29335-4 0  9993
2 29051  72.0052  42.2061 0068684 187.8180 172.1893 14.28786326720631
FORMOSAT-3 FM2          
1 29052U 06011F   20018.56015788  .00000070  00000-0  43627-4 0  9990
2 29052  72.0351 115.9427 0042330 267.8938  91.7351 14.28889452718140
ASTRA 1KR               
1 29055U 06012A   20018.52509934  .00000115  00000-0  00000-0 0  9995
2 29055   0.0404 239.3440 0004484  30.7556  55.4853  1.00270154 22253
EROS B                  
1 29079U 06014A   20018.81612594  .00001239  00000-0  53428-4 0  9996
2 29079  97.4398 140.7912 0004763  96.2994  54.8326 15.24432102762313
CLOUDSAT                
1 29107U 06016A   20018.84206710  .00000066  00000-0  22529-4 0  9997
2 29107  98.2143 326.7572 0002550 113.0659 247.0811 14.62373436730470
CALIPSO                 
1 29108U 06016B   20018.84162429  .00000079  00000-0  24912-4 0  9998
2 29108  98.2132 326.5618 0001155  78.0297 282.1033 14.62373284730327
GOES 13                 
1 29155U 06018A   20018.53992946 -.00000201  00000-0  00000-0 0  9999
2 29155   0.3219  93.3763 0008818 176.5116 135.3193  0.99976204 19889
EUTELSAT 113 WEST A     
1 29162U 06020A   20018.54354748 -.00000042  00000-0  00000-0 0  9996
2 29162   0.0435 269.5252 0002941  28.1643 262.3925  1.00272888 49991
THAICOM 5               
1 29163U 06020B   20018.59007684 -.00000126  00000-0  00000-0 0  9999
2 29163   0.0844 107.4213 0005525 195.3950 105.5630  1.00271801 50012
RESURS-DK 1             
1 29228U 06021A   20018.62588316  .00000015  00000-0  85443-5 0  9997
2 29228  69.9336 211.9552 0006691 307.7666  52.2888 15.02501701750099
GALAXY 16 (G-16)        
1 29236U 06023A   20018.56229875 -.00000131  00000-0  00000-0 0  9994
2 29236   0.0164  94.7518 0002591 206.5498 279.5291  1.00271208 49740
GENESIS 1               
1 29252U 06029A   20018.61846896  .00000278  00000-0  23683-4 0  9999
2 29252  64.5230  74.8599 0025985 197.1746 162.8501 15.17999128745289
ARIRANG-2 (KOMPSAT-2)   
1 29268U 06031A   20018.84941670  .00000516  00000-0  11135-3 0  9993
2 29268  98.0072 269.8392 0015910 265.4777  94.4596 14.62254011719200
EUTELSAT HOT BIRD 13B   
1 29270U 06032A   20018.52370355  .00000082  00000-0  00000-0 0  9992
2 29270   0.0591  24.2358 0004314 289.4788   5.1859  1.00269491 23846
JCSAT-3A                
1 29272U 06033A   20018.54682110 -.00000350  00000-0  00000-0 0  9991
2 29272   0.0411 247.5911 0002271  61.1984 133.4678  1.00271750 24258
SYRACUSE 3B             
1 29273U 06033B   20018.73559997 -.00000049  00000-0  00000+0 0  9993
2 29273   0.0190  69.5122 0003327 236.6396  71.0419  1.00270674 49271
KOREASAT 5 (MUGUNGWHA 5)
1 29349U 06034A   20018.57341035 -.00000363  00000-0  00000-0 0  9992
2 29349   0.0207 107.4435 0000967 146.8543 182.6149  1.00272253 17837
